[{"OBJECT_NAME":"STARLINK-31435","OBJECT_ID":"2024-036G","EPOCH":"2026-03-09T09:47:21.454944","MEAN_MOTION":15.30178292,"ECCENTRICITY":0.00011552,"INCLINATION":53.16,"RA_OF_ASC_NODE":79.1848,"ARG_OF_PERICENTER":95.8113,"MEAN_ANOMALY":264.3019,"EPHEMERIS_TYPE":0,"CLASSIFICATION_TYPE":"U","NORAD_CAT_ID":59004,"ELEMENT_SET_NO":999,"REV_AT_EPOCH":11529,"BSTAR":5.9965767e-5,"MEAN_MOTION_DOT":1.416e-5,"MEAN_MOTION_DDOT":0},{"OBJECT_NAME":"OBJECT K","OBJECT_ID":"2024-205K","EPOCH":"2026-03-09T22:22:01.331040","MEAN_MOTION":15.27932792,"ECCENTRICITY":0.00106729,"INCLINATION":97.417,"RA_OF_ASC_NODE":146.2172,"ARG_OF_PERICENTER":37.4736,"MEAN_ANOMALY":322.7246,"EPHEMERIS_TYPE":0,"CLASSIFICATION_TYPE":"U","NORAD_CAT_ID":61903,"ELEMENT_SET_NO":999,"REV_AT_EPOCH":7347,"BSTAR":0.00067315144,"MEAN_MOTION_DOT":0.00018331,"MEAN_MOTION_DDOT":0}]
